IRIDIUM 171             
1 43929U 19002H   24250.52340541  .00000398  00000+0  13516-3 0  9994
2 43929  86.3915 264.8609 0002292  98.0686 262.0770 14.34221987295986
IRIDIUM 170             
1 43930U 19002J   24249.59776367  .00001083  00000+0  16784-3 0  9992
2 43930  86.6038 265.0536 0002530  90.9432 269.2075 14.72251512303687
IRIDIUM 167             
1 43931U 19002K   24250.51707074  .00000122  00000+0  36552-4 0  9995
2 43931  86.3907 264.6454 0002196  94.7385 265.4061 14.34218238295983
IRIDIUM 181             
1 56726U 23068S   24249.72224988  .00001570  00000+0  45787-3 0  9994
2 56726  86.8658 322.6522 0001843  95.6109 264.5303 14.43587759 68759
IRIDIUM 177             
1 56727U 23068T   24250.14423559  .00001823  00000+0  23644-3 0  9997
2 56727  86.1924 276.9163 0001843  91.3848 268.7585 14.80231546 70352
IRIDIUM 174             
1 56728U 23068U   24250.54437479  .00001611  00000+0  20848-3 0  9996
2 56728  86.1929 276.8362 0001808  99.0094 261.1332 14.80232994 70419
IRIDIUM 178             
1 56729U 23068V   24249.66025381  .00004586  00000+0  59961-3 0  9995
2 56729  86.5755 298.5481 0002130 101.5166 258.6295 14.80251836 70282
IRIDIUM 179             
1 56730U 23068W   24249.72261406  .00004657  00000+0  60926-3 0  9996
2 56730  86.6773 303.6734 0002031  89.3223 270.8231 14.80236919 70293
